name motion2.mot
datacolumns 7
datarows 81
range 0.000000 1.000000
endheader
                time	                r1_z	                r2_x	                r3_y	                t4_x	                t5_y	                t6_z	
          0.00000000	          0.00000000	          0.00000000	          0.00000000	          0.00000000	          1.00000000	          0.00000000	
          0.00563508	         -0.00000037	          0.00001042	         -0.00111613	          0.00000012	          0.99999400	          0.00000005	
          0.02500000	         -0.00001186	          0.00013846	         -0.02167635	          0.00000227	          0.99987442	          0.00000104	
          0.04436492	         -0.00005192	          0.00022622	         -0.06734376	          0.00000702	          0.99958078	          0.00000325	
          0.05000000	         -0.00007134	          0.00020979	         -0.08519801	          0.00000886	          0.99945873	          0.00000411	
          0.05563508	         -0.00009489	          0.00016617	         -0.10506341	          0.00001090	          0.99931902	          0.00000507	
          0.07500000	         -0.00020503	         -0.00008859	         -0.18830363	          0.00001940	          0.99869807	          0.00000906	
          0.09436492	         -0.00035342	         -0.00023433	         -0.29393685	          0.00003005	          0.99784585	          0.00001398	
          0.10000000	         -0.00040247	         -0.00020528	         -0.32873091	          0.00003352	          0.99755196	          0.00001557	
          0.10563508	         -0.00045376	         -0.00012968	         -0.36530620	          0.00003715	          0.99723665	          0.00001721	
          0.12500000	         -0.00064468	          0.00048911	         -0.50421672	          0.00005081	          0.99598679	          0.00002327	
          0.14436492	         -0.00085292	          0.00164700	         -0.66280302	          0.00006614	          0.99447323	          0.00002981	
          0.15000000	         -0.00091576	          0.00208199	         -0.71249549	          0.00007089	          0.99398212	          0.00003178	
          0.15563508	         -0.00097936	          0.00255718	         -0.76373891	          0.00007576	          0.99346784	          0.00003377	
          0.17500000	         -0.00120613	          0.00426159	         -0.95129925	          0.00009335	          0.99152401	          0.00004076	
          0.19436492	         -0.00145212	          0.00549806	         -1.15580944	          0.00011214	          0.98930746	          0.00004795	
          0.20000000	         -0.00152853	          0.00566128	         -1.21835276	          0.00011780	          0.98861137	          0.00005007	
          0.20563508	         -0.00160753	          0.00570539	         -1.28221563	          0.00012355	          0.98789234	          0.00005221	
          0.22500000	         -0.00190422	          0.00494292	         -1.51137580	          0.00014384	          0.98524977	          0.00005964	
          0.24436492	         -0.00225272	          0.00280801	         -1.75474191	          0.00016484	          0.98234951	          0.00006726	
          0.25000000	         -0.00236626	          0.00193715	         -1.82807540	          0.00017105	          0.98145867	          0.00006952	
          0.25563508	         -0.00248578	          0.00096205	         -1.90249512	          0.00017730	          0.98054720	          0.00007179	
          0.27500000	         -0.00292935	         -0.00273233	         -2.16615117	          0.00019903	          0.97726387	          0.00007971	
          0.29436492	         -0.00339129	         -0.00584854	         -2.44124244	          0.00022097	          0.97376077	          0.00008769	
          0.30000000	         -0.00352304	         -0.00643818	         -2.52328563	          0.00022736	          0.97270279	          0.00009001	
          0.30563508	         -0.00365169	         -0.00682583	         -2.60617911	          0.00023376	          0.97162830	          0.00009232	
          0.32500000	         -0.00405617	         -0.00656630	         -2.89715073	          0.00025564	          0.96782014	          0.00010010	
          0.34436492	         -0.00437106	         -0.00382558	         -3.19674859	          0.00027726	          0.96385651	          0.00010743	
          0.35000000	         -0.00443998	         -0.00255910	         -3.28539290	          0.00028347	          0.96267837	          0.00010945	
          0.35563508	         -0.00449738	         -0.00108971	         -3.37464763	          0.00028964	          0.96149050	          0.00011139	
          0.37500000	         -0.00463324	          0.00480565	         -3.68564147	          0.00031044	          0.95734670	          0.00011751	
          0.39436492	         -0.00474260	          0.01027797	         -4.00239093	          0.00033048	          0.95313600	          0.00012269	
          0.40000000	         -0.00478234	          0.01146533	         -4.09548275	          0.00033614	          0.95190353	          0.00012401	
          0.40563508	         -0.00482981	          0.01237545	         -4.18893859	          0.00034172	          0.95066957	          0.00012523	
          0.42500000	         -0.00509317	          0.01312168	         -4.51247690	          0.00036017	          0.94643647	          0.00012879	
          0.44436492	         -0.00560714	          0.00969236	         -4.83880610	          0.00037736	          0.94225815	          0.00013150	
          0.45000000	         -0.00582168	          0.00781878	         -4.93412253	          0.00038209	          0.94106071	          0.00013216	
          0.45563508	         -0.00606927	          0.00554217	         -5.02954725	          0.00038670	          0.93987413	          0.00013276	
          0.47500000	         -0.00707889	         -0.00405237	         -5.35788826	          0.00040146	          0.93590031	          0.00013442	
          0.49436492	         -0.00809444	         -0.01312603	         -5.68594743	          0.00041444	          0.93213495	          0.00013540	
          0.50000000	         -0.00834599	         -0.01505540	         -5.78118426	          0.00041785	          0.93108734	          0.00013555	
          0.50563508	         -0.00856492	         -0.01649012	         -5.87626466	          0.00042109	          0.93006432	          0.00013564	
          0.52500000	         -0.00905480	         -0.01745560	         -6.20138521	          0.00043085	          0.92676634	          0.00013530	
          0.54436492	         -0.00912836	         -0.01212961	         -6.52302337	          0.00043837	          0.92387542	          0.00013358	
          0.55000000	         -0.00906974	         -0.00937002	         -6.61578219	          0.00044012	          0.92312377	          0.00013274	
          0.55563508	         -0.00897823	         -0.00608134	         -6.70810707	          0.00044166	          0.92241665	          0.00013174	
          0.57500000	         -0.00869234	          0.00743834	         -7.02161399	          0.00044526	          0.92036192	          0.00012690	
          0.59436492	         -0.00914156	          0.01989481	         -7.32824978	          0.00044588	          0.91896994	          0.00011978	
          0.60000000	         -0.00954013	          0.02247468	         -7.41599391	          0.00044543	          0.91870465	          0.00011726	
          0.60563508	         -0.01004113	          0.02433231	         -7.50300745	          0.00044470	          0.91850718	          0.00011452	
          0.62500000	         -0.00843303	          0.02410159	         -7.79596024	          0.00044034	          0.91838460	          0.00010376	
          0.64436492	          0.00855978	          0.01133973	         -8.07838309	          0.00043414	          0.91921198	          0.00009145	
          0.65000000	          0.01831525	          0.00484327	         -8.15837667	          0.00043219	          0.91964780	          0.00008769	
          0.65563508	          0.03016285	         -0.00291781	         -8.23731593	          0.00043020	          0.92017706	          0.00008388	
          0.67500000	          0.04061935	         -0.03095613	         -8.49996662	          0.00042222	          0.92277142	          0.00007024	
          0.69436492	         -0.11099771	         -0.04044159	         -8.74792357	          0.00041004	          0.92671486	          0.00005543	
          0.70000000	         -0.20719913	         -0.03583411	         -8.81706700	          0.00040526	          0.92814351	          0.00005083	
          0.70563508	         -0.33268530	         -0.02670504	         -8.88477607	          0.00039980	          0.92970365	          0.00004609	
          0.72500000	         -0.96851305	          0.04770775	         -9.10599576	          0.00037650	          0.93584262	          0.00002924	
          0.74436492	         -1.86357268	          0.20788663	         -9.30828972	          0.00034799	          0.94261557	          0.00001293	
          0.75000000	         -2.16188011	          0.27419309	         -9.36338164	          0.00033906	          0.94459838	          0.00000853	
          0.75563508	         -2.47398172	          0.35046650	         -9.41670299	          0.00032993	          0.94655641	          0.00000437	
          0.77500000	         -3.63395529	          0.69496451	         -9.58587600	          0.00029736	          0.95308484	         -0.00000804	
          0.79436492	         -4.89146925	          1.18099006	         -9.73197287	          0.00026323	          0.95933213	         -0.00001745	
          0.80000000	         -5.26859778	          1.35161516	         -9.76991012	          0.00025307	          0.96110274	         -0.00001961	
          0.80563508	         -5.64858430	          1.53605531	         -9.80571559	          0.00024284	          0.96285347	         -0.00002150	
          0.82500000	         -6.96129487	          2.26945532	         -9.91241579	          0.00020736	          0.96871078	         -0.00002604	
          0.84436492	         -8.25171553	          3.14152603	         -9.99369140	          0.00017207	          0.97430042	         -0.00002779	
          0.85000000	         -8.61684210	          3.41841333	        -10.01254714	          0.00016196	          0.97587269	         -0.00002782	
          0.85563508	         -8.97541839	          3.70470499	        -10.02924541	          0.00015197	          0.97741893	         -0.00002764	
          0.87500000	        -10.14724947	          4.74525697	        -10.07090263	          0.00011878	          0.98249974	         -0.00002564	
          0.89436492	        -11.20293241	          5.83824483	        -10.08998645	          0.00008807	          0.98713733	         -0.00002193	
          0.90000000	        -11.48407661	          6.15949374	        -10.09163579	          0.00007973	          0.98838808	         -0.00002060	
          0.90563508	        -11.75221520	          6.48000103	        -10.09164531	          0.00007169	          0.98958945	         -0.00001919	
          0.92500000	        -12.56887701	          7.55163305	        -10.08113960	          0.00004668	          0.99330182	         -0.00001395	
          0.94436492	        -13.21151045	          8.52107298	        -10.05897383	          0.00002633	          0.99627998	         -0.00000867	
          0.95000000	        -13.36363012	          8.77345219	        -10.05120998	          0.00002140	          0.99699188	         -0.00000723	
          0.95563508	        -13.49941087	          9.00904869	        -10.04314729	          0.00001696	          0.99762923	         -0.00000587	
          0.97500000	        -13.84150459	          9.65773205	        -10.01678897	          0.00000550	          0.99924447	         -0.00000206	
          0.99436492	        -13.99197087	          9.98120826	        -10.00100988	          0.00000029	          0.99996148	         -0.00000011	
          1.00000000	        -14.00000000	         10.00000000	        -10.00000000	          0.00000000	          1.00000000	          0.00000000	
