name motion3.mot
datacolumns 7
datarows 81
range 0.000000 1.000000
endheader
                time	                r1_z	                r2_x	                r3_y	                t4_x	                t5_y	                t6_z	
          0.00000000	          0.00000000	          0.00000000	          0.00000000	          0.00000000	          1.00000000	          0.00000000	
          0.00563508	         -0.00000070	          0.00000687	         -0.00076561	          0.00000001	          1.00000051	         -0.00000000	
          0.02500000	         -0.00001652	          0.00013281	         -0.01491532	          0.00000014	          1.00001017	         -0.00000001	
          0.04436492	         -0.00006091	          0.00041069	         -0.04648692	          0.00000042	          1.00003263	         -0.00000005	
          0.05000000	         -0.00008065	          0.00051885	         -0.05886712	          0.00000053	          1.00004166	         -0.00000006	
          0.05563508	         -0.00010388	          0.00063891	         -0.07266205	          0.00000066	          1.00005186	         -0.00000007	
          0.07500000	         -0.00021179	          0.00113795	         -0.13066414	          0.00000118	          1.00009603	         -0.00000013	
          0.09436492	         -0.00036575	          0.00176099	         -0.20465860	          0.00000184	          1.00015502	         -0.00000020	
          0.10000000	         -0.00041970	          0.00196371	         -0.22911511	          0.00000206	          1.00017510	         -0.00000023	
          0.10563508	         -0.00047777	          0.00217537	         -0.25486529	          0.00000229	          1.00019652	         -0.00000025	
          0.12500000	         -0.00069917	          0.00295483	         -0.35302877	          0.00000316	          1.00028082	         -0.00000035	
          0.14436492	         -0.00093035	          0.00377664	         -0.46575513	          0.00000415	          1.00038249	         -0.00000046	
          0.15000000	         -0.00099494	          0.00401652	         -0.50121390	          0.00000447	          1.00041549	         -0.00000050	
          0.15563508	         -0.00105653	          0.00425409	         -0.53784530	          0.00000479	          1.00045009	         -0.00000054	
          0.17500000	         -0.00120578	          0.00500508	         -0.67247933	          0.00000596	          1.00058150	         -0.00000067	
          0.19436492	         -0.00116299	          0.00554056	         -0.82024690	          0.00000724	          1.00073324	         -0.00000082	
          0.20000000	         -0.00109656	          0.00563446	         -0.86563400	          0.00000763	          1.00078138	         -0.00000087	
          0.20563508	         -0.00100000	          0.00569377	         -0.91207270	          0.00000803	          1.00083138	         -0.00000091	
          0.22500000	         -0.00037853	          0.00558278	         -1.07948698	          0.00000946	          1.00101793	         -0.00000109	
          0.24436492	          0.00082988	          0.00486932	         -1.25860598	          0.00001099	          1.00122862	         -0.00000127	
          0.25000000	          0.00131775	          0.00452698	         -1.31284783	          0.00001145	          1.00129472	         -0.00000132	
          0.25563508	          0.00187201	          0.00411617	         -1.36802032	          0.00001192	          1.00136305	         -0.00000138	
          0.27500000	          0.00411056	          0.00205341	         -1.56452572	          0.00001361	          1.00161507	         -0.00000157	
          0.29436492	          0.00642677	         -0.00132494	         -1.77130580	          0.00001539	          1.00189410	         -0.00000177	
          0.30000000	          0.00703281	         -0.00261281	         -1.83332807	          0.00001593	          1.00198043	         -0.00000183	
          0.30563508	          0.00757382	         -0.00405043	         -1.89615975	          0.00001648	          1.00206912	         -0.00000189	
          0.32500000	          0.00808863	         -0.00984718	         -2.11806148	          0.00001844	          1.00239341	         -0.00000209	
          0.34436492	          0.00446823	         -0.01623500	         -2.34880508	          0.00002053	          1.00275165	         -0.00000228	
          0.35000000	          0.00225244	         -0.01806666	         -2.41753136	          0.00002116	          1.00286298	         -0.00000233	
          0.35563508	         -0.00062155	         -0.01985407	         -2.48694555	          0.00002180	          1.00297767	         -0.00000237	
          0.37500000	         -0.01750113	         -0.02615955	         -2.73053547	          0.00002404	          1.00339507	         -0.00000251	
          0.39436492	         -0.04992798	         -0.03402850	         -2.98150701	          0.00002617	          1.00384237	         -0.00000267	
          0.40000000	         -0.06316683	         -0.03685822	         -3.05584228	          0.00002674	          1.00397699	         -0.00000273	
          0.40563508	         -0.07831048	         -0.03999120	         -3.13073981	          0.00002728	          1.00411325	         -0.00000280	
          0.42500000	         -0.14062524	         -0.05239070	         -3.39222590	          0.00002894	          1.00459135	         -0.00000308	
          0.44436492	         -0.20788831	         -0.06551045	         -3.65965369	          0.00003035	          1.00507849	         -0.00000337	
          0.45000000	         -0.22633082	         -0.06912360	         -3.73851236	          0.00003072	          1.00522079	         -0.00000345	
          0.45563508	         -0.24361744	         -0.07255645	         -3.81781534	          0.00003107	          1.00536304	         -0.00000353	
          0.47500000	         -0.28895655	         -0.08351014	         -4.09355567	          0.00003226	          1.00585384	         -0.00000374	
          0.49436492	         -0.30063172	         -0.09465276	         -4.37389859	          0.00003357	          1.00635414	         -0.00000388	
          0.50000000	         -0.29547572	         -0.09821157	         -4.45626996	          0.00003401	          1.00650271	         -0.00000390	
          0.50563508	         -0.28585195	         -0.10199971	         -4.53897549	          0.00003447	          1.00665283	         -0.00000391	
          0.52500000	         -0.21963121	         -0.11737815	         -4.82548216	          0.00003600	          1.00716944	         -0.00000390	
          0.54436492	         -0.10550499	         -0.13777474	         -5.11493839	          0.00003667	          1.00765941	         -0.00000380	
          0.55000000	         -0.06394422	         -0.14490832	         -5.19961031	          0.00003657	          1.00779176	         -0.00000375	
          0.55563508	         -0.01893502	         -0.15254167	         -5.28444623	          0.00003630	          1.00791832	         -0.00000369	
          0.57500000	          0.15187353	         -0.17415740	         -5.57695338	          0.00003437	          1.00833057	         -0.00000344	
          0.59436492	          0.32294310	         -0.16766535	         -5.87032837	          0.00003167	          1.00876349	         -0.00000311	
          0.60000000	          0.36812630	         -0.15656018	         -5.95574285	          0.00003089	          1.00890383	         -0.00000299	
          0.60563508	          0.40971558	         -0.14011118	         -6.04113842	          0.00003016	          1.00905314	         -0.00000287	
          0.62500000	          0.50855352	         -0.03622960	         -6.33404565	          0.00002795	          1.00960154	         -0.00000241	
          0.64436492	          0.50037458	          0.15524429	         -6.62514660	          0.00002613	          1.01011728	         -0.00000196	
          0.65000000	          0.47061927	          0.23008817	         -6.70933798	          0.00002565	          1.01024482	         -0.00000184	
          0.65563508	          0.42642026	          0.31424263	         -6.79324170	          0.00002519	          1.01035740	         -0.00000172	
          0.67500000	          0.15932113	          0.66994469	         -7.07903837	          0.00002366	          1.01061462	         -0.00000141	
          0.69436492	         -0.29495220	          1.11619540	         -7.36014704	          0.00002200	          1.01064126	         -0.00000125	
          0.70000000	         -0.46393401	          1.26071564	         -7.44092544	          0.00002146	          1.01060012	         -0.00000123	
          0.70563508	         -0.64980636	          1.41115109	         -7.52119462	          0.00002088	          1.01053561	         -0.00000124	
          0.72500000	         -1.40588832	          1.97024842	         -7.79252188	          0.00001868	          1.01015348	         -0.00000136	
          0.74436492	         -2.31463836	          2.58854893	         -8.05535805	          0.00001635	          1.00956955	         -0.00000153	
          0.75000000	         -2.60228942	          2.77845315	         -8.12996652	          0.00001568	          1.00937050	         -0.00000158	
          0.75563508	         -2.89873861	          2.97247962	         -8.20364414	          0.00001502	          1.00916088	         -0.00000162	
          0.77500000	         -3.97434392	          3.66620667	         -8.44922010	          0.00001288	          1.00836834	         -0.00000169	
          0.79436492	         -5.11576345	          4.39127163	         -8.68186076	          0.00001089	          1.00747973	         -0.00000169	
          0.80000000	         -5.45608879	          4.60619004	         -8.74691486	          0.00001034	          1.00720608	         -0.00000167	
          0.80563508	         -5.79880282	          4.82226149	         -8.81071145	          0.00000979	          1.00692665	         -0.00000165	
          0.82500000	         -6.98512477	          5.56829235	         -9.01988514	          0.00000802	          1.00593676	         -0.00000155	
          0.84436492	         -8.16323655	          6.30774471	         -9.21240683	          0.00000639	          1.00493493	         -0.00000140	
          0.85000000	         -8.50047714	          6.51943049	         -9.26510208	          0.00000595	          1.00464754	         -0.00000135	
          0.85563508	         -8.83394678	          6.72883621	         -9.31623572	          0.00000552	          1.00436389	         -0.00000130	
          0.87500000	         -9.94188602	          7.42539208	         -9.47962293	          0.00000416	          1.00342514	         -0.00000109	
          0.89436492	        -10.97016407	          8.07338749	         -9.62295138	          0.00000299	          1.00255711	         -0.00000087	
          0.90000000	        -11.25052627	          8.25041955	         -9.66071251	          0.00000268	          1.00232062	         -0.00000080	
          0.90563508	        -11.52117436	          8.42150032	         -9.69663924	          0.00000239	          1.00209226	         -0.00000073	
          0.92500000	        -12.36809785	          8.95811037	         -9.80572745	          0.00000151	          1.00137733	         -0.00000051	
          0.94436492	        -13.06579946	          9.40185606	         -9.89168068	          0.00000083	          1.00078816	         -0.00000031	
          0.95000000	        -13.23696630	          9.51102724	         -9.91218409	          0.00000067	          1.00064364	         -0.00000025	
          0.95563508	        -13.39257943	          9.61041715	         -9.93060484	          0.00000053	          1.00051229	         -0.00000020	
          0.97500000	        -13.79982337	          9.87125476	         -9.97768278	          0.00000017	          1.00016874	         -0.00000007	
          0.99436492	        -13.98945904	          9.99320300	         -9.99885184	          0.00000001	          1.00000888	         -0.00000000	
          1.00000000	        -14.00000000	         10.00000000	        -10.00000000	          0.00000000	          1.00000000	          0.00000000	
